NORAD_CAT_ID,OBJECT_NAME,OBJECT_TYPE,EPOCH,MEAN_MOTION,ECCENTRICITY,INCLINATION,RA_OF_ASC_NODE,ARG_OF_PERICENTER,MEAN_ANOMALY,BSTAR,MEAN_MOTION_DOT,MEAN_MOTION_DDOT,TLE_LINE0,TLE_LINE1,TLE_LINE2,SEMIMAJOR_AXIS,PERIOD,APOGEE,PERIGEE,DECAYED
52477.0,STARLINK-3860,PAYLOAD,2024-01-08 08:36:01,15.08842139,0.000147,53.2178,1.5406,89.5447,270.5714,3.4309e-05,2.58e-06,0.0,0 STARLINK-3860,1 52477U 22049AC  24008.35835089  .00000258  00000-0  34309-4 0  9995,2 52477  53.2178   1.5406 0001470  89.5447 270.5714 15.08842139 94165,6917.874,95.437,540.756,538.722,0.0
52477.0,STARLINK-3860,PAYLOAD,2024-01-09 05:16:02,15.08841738,0.0001561,53.2187,357.6737,83.6997,276.4173,3.7824e-05,3.14e-06,0.0,0 STARLINK-3860,1 52477U 22049AC  24009.21947182  .00000314  00000-0  37824-4 0  9997,2 52477  53.2187 357.6737 0001561  83.6997 276.4173 15.08841738 93216,6917.875,95.437,540.82,538.66,0.0
52477.0,STARLINK-3860,PAYLOAD,2024-01-09 08:26:48,15.08846735,0.000163,53.2194,357.0775,82.358,277.7597,8.1838e-05,1.015e-05,0.0,0 STARLINK-3860,1 52477U 22049AC  24009.35194677  .00001015  00000-0  81838-4 0  9998,2 52477  53.2194 357.0775 0001630  82.3580 277.7597 15.08846735 94319,6917.86,95.437,540.852,538.597,0.0
52477.0,STARLINK-3860,PAYLOAD,2024-01-10 05:06:49,15.08841585,0.0001749,53.2206,353.207,86.6341,273.4851,6.8445e-06,-1.79e-06,0.0,0 STARLINK-3860,1 52477U 22049AC  24010.21307274 -.00000179  00000-0  68445-5 0  9995,2 52477  53.2206 353.2070 0001749  86.6341 273.4851 15.08841585 93360,6917.876,95.437,540.95,538.531,0.0
52477.0,STARLINK-3860,PAYLOAD,2024-01-10 08:17:36,15.08837139,0.0001622,53.218,352.6293,79.9308,280.1867,-1.7203e-05,-5.62e-06,0.0,0 STARLINK-3860,1 52477U 22049AC  24010.34555792 -.00000562  00000-0 -17203-4 0  9991,2 52477  53.2180 352.6293 0001622  79.9308 280.1867 15.08837139 94463,6917.889,95.438,540.876,538.632,0.0
52477.0,STARLINK-3860,PAYLOAD,2024-01-11 08:08:22,15.0885276,0.000153,53.2188,348.1603,106.6498,253.4662,8.0655e-05,9.96e-06,0.0,0 STARLINK-3860,1 52477U 22049AC  24011.33915378  .00000996  00000-0  80655-4 0  9991,2 52477  53.2188 348.1603 0001530 106.6498 253.4662 15.08852760 93532,6917.841,95.437,540.765,538.648,0.0
52477.0,STARLINK-3860,PAYLOAD,2024-01-11 22:26:51,15.08851214,0.0001529,53.2184,345.4838,105.337,254.7791,9.6592e-05,1.25e-05,0.0,0 STARLINK-3860,1 52477U 22049AC  24011.93531465  .00001250  00000-0  96592-4 0  9999,2 52477  53.2184 345.4838 0001529 105.3370 254.7791 15.08851214 94701,6917.846,95.437,540.769,538.653,0.0
52477.0,STARLINK-3860,PAYLOAD,2024-01-12 04:48:22,15.08859117,0.0001619,53.218,344.296,109.4201,250.6966,0.00016349,2.316e-05,0.0,0 STARLINK-3860,1 52477U 22049AC  24012.20026586  .00002316  00000-0  16349-3 0  9998,2 52477  53.2180 344.2960 0001619 109.4201 250.6966 15.08859117 94741,6917.822,95.436,540.807,538.567,0.0
52477.0,STARLINK-3860,PAYLOAD,2024-01-12 22:17:39,15.08845219,0.0001673,53.2178,341.0258,118.1956,241.9205,-5.8139e-05,-1.213e-05,0.0,0 STARLINK-3860,1 52477U 22049AC  24012.92892541 -.00001213  00000-0 -58139-4 0  9990,2 52477  53.2178 341.0258 0001673 118.1956 241.9205 15.08845219 94856,6917.864,95.437,540.887,538.572,0.0
52477.0,STARLINK-3860,PAYLOAD,2024-01-13 04:39:11,15.08847821,0.0001674,53.2182,339.8344,116.6593,243.4571,-3.2187e-05,-8e-06,0.0,0 STARLINK-3860,1 52477U 22049AC  24013.19388200 -.00000800  00000-0 -32187-4 0  9998,2 52477  53.2182 339.8344 0001674 116.6593 243.4571 15.08847821 93812,6917.856,95.437,540.88,538.563,0.0
52477.0,STARLINK-3860,PAYLOAD,2024-01-14 02:54:34,15.08851704,0.0001732,53.219,335.6743,113.9375,246.1799,-5.2607e-05,-1.126e-05,0.0,0 STARLINK-3860,1 52477U 22049AC  24014.12123730 -.00001126  00000-0 -52607-4 0  9998,2 52477  53.2190 335.6743 0001732 113.9375 246.1799 15.08851704 95034,6917.845,95.437,540.908,538.511,0.0
52477.0,STARLINK-3860,PAYLOAD,2024-01-14 21:59:12,15.08839555,0.0001477,53.2186,332.1052,103.9973,256.1183,9.8572e-05,1.281e-05,0.0,0 STARLINK-3860,1 52477U 22049AC  24014.91612019  .00001281  00000-0  98572-4 0  9999,2 52477  53.2186 332.1052 0001477 103.9973 256.1183 15.08839555 95154,6917.882,95.438,540.769,538.725,0.0
52477.0,STARLINK-3860,PAYLOAD,2024-01-15 02:45:21,15.08842714,0.0001557,53.2183,331.212,106.9774,253.1389,0.00010857,1.44e-05,0.0,0 STARLINK-3860,1 52477U 22049AC  24015.11483789  .00001440  00000-0  10857-3 0  9998,2 52477  53.2183 331.2120 0001557 106.9774 253.1389 15.08842714 94108,6917.872,95.437,540.814,538.66,0.0
52477.0,STARLINK-3860,PAYLOAD,2024-01-15 05:56:07,15.08849449,0.0001571,53.2195,330.6215,101.9243,258.1926,0.00018712,2.692e-05,0.0,0 STARLINK-3860,1 52477U 22049AC  24015.24731272  .00002692  00000-0  18712-3 0  9993,2 52477  53.2195 330.6215 0001571 101.9243 258.1926 15.08849449 94127,6917.852,95.437,540.803,538.63,0.0
52477.0,STARLINK-3860,PAYLOAD,2024-01-16 05:46:56,15.08836025,0.0001794,53.2186,326.1562,85.488,274.6317,1.7379e-05,-1.2e-07,0.0,0 STARLINK-3860,1 52477U 22049AC  24016.24092906 -.00000012  00000-0  17379-4 0  9992,2 52477  53.2186 326.1562 0001794  85.4880 274.6317 15.08836025 94271,6917.893,95.438,540.999,538.516,0.0
52477.0,STARLINK-3860,PAYLOAD,2024-01-17 04:02:19,15.08847533,0.0001551,53.2187,321.992,81.0847,279.0321,0.00014759,2.062e-05,0.0,0 STARLINK-3860,1 52477U 22049AC  24017.16827968  .00002062  00000-0  14759-3 0  9992,2 52477  53.2187 321.9920 0001551  81.0847 279.0321 15.08847533 94415,6917.857,95.437,540.795,538.649,0.0
52477.0,STARLINK-3860,PAYLOAD,2024-01-18 02:17:43,15.08840629,0.0001417,53.2171,317.8313,84.0323,276.083,9.7327e-05,1.261e-05,0.0,0 STARLINK-3860,1 52477U 22049AC  24018.09564584  .00001261  00000-0  97327-4 0  9990,2 52477  53.2171 317.8313 0001417  84.0323 276.0830 15.08840629 94557,6917.878,95.438,540.724,538.763,0.0
52477.0,STARLINK-3860,PAYLOAD,2024-01-18 21:22:21,15.08846785,0.0001439,53.2168,314.2635,91.2423,268.8734,-4.0796e-05,-9.37e-06,0.0,0 STARLINK-3860,1 52477U 22049AC  24018.89052404 -.00000937  00000-0 -40796-4 0  9990,2 52477  53.2168 314.2635 0001439  91.2423 268.8734 15.08846785 95750,6917.86,95.437,540.72,538.729,0.0
52477.0,STARLINK-3860,PAYLOAD,2024-01-19 02:08:30,15.08853304,0.0001323,53.2157,313.3762,87.8235,272.2908,8.0285e-05,9.9e-06,0.0,0 STARLINK-3860,1 52477U 22049AC  24019.08923817  .00000990  00000-0  80285-4 0  9991,2 52477  53.2157 313.3762 0001323  87.8235 272.2908 15.08853304 94704,6917.84,95.437,540.62,538.789,0.0
52477.0,STARLINK-3860,PAYLOAD,2024-01-19 05:19:16,15.08857204,0.0001415,53.217,312.7747,91.4643,268.6512,0.0001598,2.257e-05,0.0,0 STARLINK-3860,1 52477U 22049AC  24019.22171721  .00002257  00000-0  15980-3 0  9993,2 52477  53.2170 312.7747 0001415  91.4643 268.6512 15.08857204 95806,6917.828,95.436,540.672,538.714,0.0
52477.0,STARLINK-3860,PAYLOAD,2024-01-19 19:37:45,15.08838941,0.0001651,53.2176,310.0923,131.095,229.0185,6.6832e-05,7.76e-06,0.0,0 STARLINK-3860,1 52477U 22049AC  24019.81788411  .00000776  00000-0  66832-4 0  9995,2 52477  53.2176 310.0923 0001651 131.0950 229.0185 15.08838941 94817,6917.884,95.438,540.891,538.606,0.0
52477.0,STARLINK-3860,PAYLOAD,2024-01-19 22:48:31,15.08844628,0.0002254,53.216,309.4991,146.0455,214.0681,0.00012012,1.624e-05,0.0,0 STARLINK-3860,1 52477U 22049AC  24019.95035888  .00001624  00000-0  12012-3 0  9996,2 52477  53.2160 309.4991 0002254 146.0455 214.0681 15.08844628 95919,6917.866,95.437,541.291,538.172,0.0
52477.0,STARLINK-3860,PAYLOAD,2024-01-20 01:59:17,15.08844938,0.0001355,53.2167,308.9103,99.1995,260.915,0.00015052,2.109e-05,0.0,0 STARLINK-3860,1 52477U 22049AC  24020.08284332  .00002109  00000-0  15052-3 0  9998,2 52477  53.2167 308.9103 0001355  99.1995 260.9150 15.08844938 95930,6917.865,95.437,540.668,538.793,0.0
52477.0,STARLINK-3860,PAYLOAD,2024-01-20 22:39:18,15.08838885,0.0001436,53.2167,305.0456,100.5188,259.5966,-5.5431e-05,-1.17e-05,0.0,0 STARLINK-3860,1 52477U 22049AC  24020.94396707 -.00001170  00000-0 -55431-4 0  9998,2 52477  53.2167 305.0456 0001436 100.5188 259.5966 15.08838885 96068,6917.884,95.438,540.742,538.755,0.0
52477.0,STARLINK-3860,PAYLOAD,2024-01-21 00:14:42,15.08835601,0.0001424,53.2176,304.7488,103.0402,257.0749,4.0754e-05,3.61e-06,0.0,0 STARLINK-3860,1 52477U 22049AC  24021.01020839  .00000361  00000-0  40754-4 0  9998,2 52477  53.2176 304.7488 0001424 103.0402 257.0749 15.08835601 94998,6917.894,95.438,540.744,538.774,0.0
52477.0,STARLINK-3860,PAYLOAD,2024-01-21 22:30:05,15.08841652,0.0001488,53.2179,300.5858,106.9927,253.1228,7.405e-05,8.91e-06,0.0,0 STARLINK-3860,1 52477U 22049AC  24021.93756582  .00000891  00000-0  74050-4 0  9994,2 52477  53.2179 300.5858 0001488 106.9927 253.1228 15.08841652 96219,6917.875,95.437,540.77,538.711,0.0
52477.0,STARLINK-3860,PAYLOAD,2024-01-22 03:16:14,15.0885392,0.0001597,53.2176,299.6926,104.0772,256.0398,0.00010901,1.448e-05,0.0,0 STARLINK-3860,1 52477U 22049AC  24022.13627935  .00001448  00000-0  10901-3 0  9999,2 52477  53.2176 299.6926 0001597 104.0772 256.0398 15.08853920 95162,6917.838,95.437,540.808,538.598,0.0
52477.0,STARLINK-3860,PAYLOAD,2024-01-22 22:20:53,15.08834146,0.0001447,53.2178,296.1242,91.0176,269.0982,2.2942e-06,-2.51e-06,0.0,0 STARLINK-3860,1 52477U 22049AC  24022.93117233 -.00000251  00000-0  22942-5 0  9994,2 52477  53.2178 296.1242 0001447  91.0176 269.0982 15.08834146 96369,6917.898,95.438,540.764,538.762,0.0
52477.0,STARLINK-3860,PAYLOAD,2024-01-23 01:31:39,15.08837306,0.0001594,53.2177,295.5296,78.4761,281.6411,6.2159e-05,7.01e-06,0.0,0 STARLINK-3860,1 52477U 22049AC  24023.06365223  .00000701  00000-0  62159-4 0  9995,2 52477  53.2177 295.5296 0001594  78.4761 281.6411 15.08837306 95303,6917.889,95.438,540.856,538.651,0.0
52477.0,STARLINK-3860,PAYLOAD,2024-01-23 22:11:39,15.08847924,0.0001554,53.2173,291.6646,76.474,283.6425,0.00010434,1.373e-05,0.0,0 STARLINK-3860,1 52477U 22049AC  24023.92476750  .00001373  00000-0  10434-3 0  9992,2 52477  53.2173 291.6646 0001554  76.4740 283.6425 15.08847924 96514,6917.856,95.437,540.796,538.646,0.0
